IRIDIUM 171             
1 43929U 19002H   23327.65853025  .00000415  00000+0  14124-3 0  9994
2 43929  86.4009  25.1757 0002283  92.1804 267.9653 14.34218858254724
IRIDIUM 170             
1 43930U 19002J   23327.70606195  .00001465  00000+0  22843-3 0  9999
2 43930  86.6129  25.0068 0002543  96.6710 263.4797 14.72244898261474
IRIDIUM 167             
1 43931U 19002K   23327.72193177  .00000373  00000+0  12625-3 0  9997
2 43931  86.3999  24.9605 0002310  93.9056 266.2404 14.34218613254738
IRIDIUM 181             
1 56726U 23068S   23327.82100322  .00000755  00000+0  21724-3 0  9995
2 56726  86.8640  68.6348 0003195  91.0883 269.0685 14.43576664 27362
IRIDIUM 177             
1 56727U 23068T   23327.76983653  .00002706  00000+0  35261-3 0  9994
2 56727  86.2000  53.3483 0002225  96.5015 263.6460 14.80232471 27848
IRIDIUM 174             
1 56728U 23068U   23327.76438610  .00002811  00000+0  36637-3 0  9998
2 56728  86.2006  53.4377 0002115 100.1273 260.0187 14.80233611 27848
IRIDIUM 178             
1 56729U 23068V   23327.75904808  .00002327  00000+0  30270-3 0  9994
2 56729  86.5802  61.1196 0002235  94.6032 265.5445 14.80237090 27846
IRIDIUM 179             
1 56730U 23068W   23327.75360400  .00002703  00000+0  35227-3 0  9995
2 56730  86.6808  62.6560 0002084 103.3071 256.8383 14.80240467 27845
